start=new Date('2021-09-28T00:00:00.000Z').valueOf();
sats=[{"GP_ID":"185669226","PERIAPSIS":"492.203","CLASSIFICATION_TYPE":"U","APOAPSIS":"494.209","SITE":"AFETR","RA_OF_ASC_NODE":"171.4173","TLE_LINE1":"1 48681U 21044AV  21271.00002315 -.01041726  00000-0 -45988-1 0  9990","OBJECT_TYPE":"PAYLOAD","PERIOD":"94.476","COUNTRY_CODE":"US","OBJECT_ID":"2021-044AV","ELEMENT_SET_NO":"999","INCLINATION":"53.0488","RCS_SIZE":"LARGE","REV_AT_EPOCH":"364","MEAN_ANOMALY":"81.7679","MEAN_MOTION_DDOT":"0.0000000000000","FILE":"3131463","CENTER_NAME":"EARTH","DECAY_DATE":null,"ECCENTRICITY":"0.00014600","TIME_SYSTEM":"UTC","EPHEMERIS_TYPE":"0","OBJECT_NAME":"STARLINK-2725","MEAN_MOTION_DOT":"-0.01041726","REF_FRAME":"TEME","NORAD_CAT_ID":"48681","MEAN_MOTION":"15.24194845","LAUNCH_DATE":"2021-05-26","ARG_OF_PERICENTER":"64.5007","BSTAR":"-0.04598800000000","TLE_LINE2":"2 48681  53.0488 171.4173 0001460  64.5007  81.7679 15.24194845  3648","MEAN_ELEMENT_THEORY":"SGP4","EPOCH":"2021-09-28T00:00:02.000160","SEMIMAJOR_AXIS":"6871.341"},{"GP_ID":"185669873","APOAPSIS":"357.246","PERIAPSIS":"353.249","CLASSIFICATION_TYPE":"U","TLE_LINE1":"1 48682U 21044AW  21271.00002315 -.01064751  00000-0 -91559-2 0  9990","OBJECT_TYPE":"PAYLOAD","RA_OF_ASC_NODE":"167.3771","SITE":"AFETR","ELEMENT_SET_NO":"999","OBJECT_ID":"2021-044AW","PERIOD":"91.645","COUNTRY_CODE":"US","RCS_SIZE":"LARGE","INCLINATION":"53.0433","MEAN_MOTION_DDOT":"0.0000000000000","REV_AT_EPOCH":"367","MEAN_ANOMALY":"41.5582","CENTER_NAME":"EARTH","FILE":"3131463","OBJECT_NAME":"STARLINK-2743","EPHEMERIS_TYPE":"0","ECCENTRICITY":"0.00029680","DECAY_DATE":null,"TIME_SYSTEM":"UTC","MEAN_MOTION_DOT":"-0.01064751","NORAD_CAT_ID":"48682","MEAN_MOTION":"15.71277279","REF_FRAME":"TEME","ARG_OF_PERICENTER":"335.0410","LAUNCH_DATE":"2021-05-26","BSTAR":"-0.00915590000000","TLE_LINE2":"2 48682  53.0433 167.3771 0002968 335.0410  41.5582 15.71277279  3670","MEAN_ELEMENT_THEORY":"SGP4","SEMIMAJOR_AXIS":"6733.383","EPOCH":"2021-09-28T00:00:02.000160"},{"LAUNCH_DATE":"2021-05-26","ARG_OF_PERICENTER":"4.4601","TLE_LINE2":"2 48683  53.0433 167.3709 0003313   4.4601  15.3744 15.72777154  3673","BSTAR":"-0.00828710000000","MEAN_ELEMENT_THEORY":"SGP4","EPOCH":"2021-09-28T00:00:02.000160","SEMIMAJOR_AXIS":"6729.101","DECAY_DATE":null,"TIME_SYSTEM":"UTC","ECCENTRICITY":"0.00033130","EPHEMERIS_TYPE":"0","OBJECT_NAME":"STARLINK-2756","MEAN_MOTION_DOT":"-0.01031344","REF_FRAME":"TEME","NORAD_CAT_ID":"48683","MEAN_MOTION":"15.72777154","COUNTRY_CODE":"US","PERIOD":"91.558","ELEMENT_SET_NO":"999","OBJECT_ID":"2021-044AX","INCLINATION":"53.0433","RCS_SIZE":"LARGE","MEAN_ANOMALY":"15.3744","REV_AT_EPOCH":"367","MEAN_MOTION_DDOT":"0.0000000000000","FILE":"3131463","CENTER_NAME":"EARTH","GP_ID":"185669330","PERIAPSIS":"348.737","CLASSIFICATION_TYPE":"U","APOAPSIS":"353.195","SITE":"AFETR","RA_OF_ASC_NODE":"167.3709","TLE_LINE1":"1 48683U 21044AX  21271.00002315 -.01031344  00000-0 -82871-2 0  9990","OBJECT_TYPE":"PAYLOAD"},{"MEAN_MOTION_DOT":"-0.00074304","OBJECT_NAME":"STARLINK-2741","EPHEMERIS_TYPE":"0","DECAY_DATE":null,"TIME_SYSTEM":"UTC","ECCENTRICITY":"0.00024360","NORAD_CAT_ID":"48684","MEAN_MOTION":"15.06794417","REF_FRAME":"TEME","ARG_OF_PERICENTER":"94.1399","LAUNCH_DATE":"2021-05-26","SEMIMAJOR_AXIS":"6924.140","EPOCH":"2021-09-27T05:27:42.410016","BSTAR":"-0.00496800000000","TLE_LINE2":"2 48684  53.0532 179.0984 0002436  94.1399 265.9868 15.06794417 19354","MEAN_ELEMENT_THEORY":"SGP4","GP_ID":"185636535","TLE_LINE1":"1 48684U 21044AY  21270.22757419 -.00074304  00000-0 -49680-2 0  9999","RA_OF_ASC_NODE":"179.0984","OBJECT_TYPE":"PAYLOAD","SITE":"AFETR","APOAPSIS":"547.692","CLASSIFICATION_TYPE":"U","PERIAPSIS":"544.318","RCS_SIZE":"LARGE","INCLINATION":"53.0532","ELEMENT_SET_NO":"999","OBJECT_ID":"2021-044AY","COUNTRY_CODE":"US","PERIOD":"95.567","CENTER_NAME":"EARTH","FILE":"3130990","MEAN_MOTION_DDOT":"0.0000000000000","MEAN_ANOMALY":"265.9868","REV_AT_EPOCH":"1935"},{"COUNTRY_CODE":"US","PERIOD":"91.532","ELEMENT_SET_NO":"999","OBJECT_ID":"2021-044AZ","INCLINATION":"53.0443","RCS_SIZE":"LARGE","REV_AT_EPOCH":"367","MEAN_ANOMALY":"17.0800","MEAN_MOTION_DDOT":"0.0000000000000","FILE":"3131463","CENTER_NAME":"EARTH","GP_ID":"185669551","APOAPSIS":"352.427","PERIAPSIS":"347.009","CLASSIFICATION_TYPE":"U","SITE":"AFETR","RA_OF_ASC_NODE":"167.3713","TLE_LINE1":"1 48685U 21044AZ  21271.00002315  .00016837  00000-0  12402-3 0  9993","OBJECT_TYPE":"PAYLOAD","LAUNCH_DATE":"2021-05-26","ARG_OF_PERICENTER":"4.2154","BSTAR":"0.00012402000000","TLE_LINE2":"2 48685  53.0443 167.3713 0004027   4.2154  17.0800 15.73214849  3675","MEAN_ELEMENT_THEORY":"SGP4","EPOCH":"2021-09-28T00:00:02.000160","SEMIMAJOR_AXIS":"6727.853","EPHEMERIS_TYPE":"0","TIME_SYSTEM":"UTC","DECAY_DATE":null,"ECCENTRICITY":"0.00040270","OBJECT_NAME":"STARLINK-2751","MEAN_MOTION_DOT":"0.00016837","NORAD_CAT_ID":"48685","MEAN_MOTION":"15.73214849","REF_FRAME":"TEME"},{"FILE":"3131463","CENTER_NAME":"EARTH","MEAN_ANOMALY":"155.9828","REV_AT_EPOCH":"367","MEAN_MOTION_DDOT":"0.0000000000000","INCLINATION":"53.0445","RCS_SIZE":"LARGE","COUNTRY_CODE":"US","PERIOD":"93.038","OBJECT_ID":"2021-044BA","ELEMENT_SET_NO":"999","SITE":"AFETR","TLE_LINE1":"1 48686U 21044BA  21271.00002315 -.01040570  00000-0 -21729-1 0  9998","RA_OF_ASC_NODE":"168.2535","OBJECT_TYPE":"PAYLOAD","PERIAPSIS":"422.431","CLASSIFICATION_TYPE":"U","APOAPSIS":"424.157","GP_ID":"185669766","EPOCH":"2021-09-28T00:00:02.000160","SEMIMAJOR_AXIS":"6801.429","MEAN_ELEMENT_THEORY":"SGP4","TLE_LINE2":"2 48686  53.0445 168.2535 0001269  92.0018 155.9828 15.47756174  3674","BSTAR":"-0.02172900000000","LAUNCH_DATE":"2021-05-26","ARG_OF_PERICENTER":"92.0018","REF_FRAME":"TEME","NORAD_CAT_ID":"48686","MEAN_MOTION":"15.47756174","MEAN_MOTION_DOT":"-0.01040570","TIME_SYSTEM":"UTC","DECAY_DATE":null,"ECCENTRICITY":"0.00012690","EPHEMERIS_TYPE":"0","OBJECT_NAME":"STARLINK-2629"},{"NORAD_CAT_ID":"48687","MEAN_MOTION":"15.73177703","REF_FRAME":"TEME","MEAN_MOTION_DOT":"0.00030834","OBJECT_NAME":"STARLINK-2627","EPHEMERIS_TYPE":"0","ECCENTRICITY":"0.00039150","DECAY_DATE":null,"TIME_SYSTEM":"UTC","SEMIMAJOR_AXIS":"6727.959","EPOCH":"2021-09-28T00:00:02.000160","MEAN_ELEMENT_THEORY":"SGP4","TLE_LINE2":"2 48687  53.0441 167.3622 0003915   6.1536  16.4224 15.73177703  3674","BSTAR":"0.00022342000000","ARG_OF_PERICENTER":"6.1536","LAUNCH_DATE":"2021-05-26","TLE_LINE1":"1 48687U 21044BB  21271.00002315  .00030834  00000-0  22342-3 0  9992","RA_OF_ASC_NODE":"167.3622","OBJECT_TYPE":"PAYLOAD","SITE":"AFETR","APOAPSIS":"352.458","PERIAPSIS":"347.190","CLASSIFICATION_TYPE":"U","GP_ID":"185669656","CENTER_NAME":"EARTH","FILE":"3131463","MEAN_MOTION_DDOT":"0.0000000000000","MEAN_ANOMALY":"16.4224","REV_AT_EPOCH":"367","RCS_SIZE":"LARGE","INCLINATION":"53.0441","OBJECT_ID":"2021-044BB","ELEMENT_SET_NO":"999","COUNTRY_CODE":"US","PERIOD":"91.534"},{"TLE_LINE2":"2 48688  53.0441 167.3605 0003951   1.0314  22.1680 15.73239227  3674","BSTAR":"-0.00041948000000","MEAN_ELEMENT_THEORY":"SGP4","SEMIMAJOR_AXIS":"6727.783","EPOCH":"2021-09-28T00:00:02.000160","ARG_OF_PERICENTER":"1.0314","LAUNCH_DATE":"2021-05-26","MEAN_MOTION":"15.73239227","NORAD_CAT_ID":"48688","REF_FRAME":"TEME","OBJECT_NAME":"STARLINK-2742","EPHEMERIS_TYPE":"0","ECCENTRICITY":"0.00039510","DECAY_DATE":null,"TIME_SYSTEM":"UTC","MEAN_MOTION_DOT":"-0.00059222","MEAN_MOTION_DDOT":"0.0000000000000","MEAN_ANOMALY":"22.1680","REV_AT_EPOCH":"367","CENTER_NAME":"EARTH","FILE":"3131463","ELEMENT_SET_NO":"999","OBJECT_ID":"2021-044BC","COUNTRY_CODE":"US","PERIOD":"91.531","RCS_SIZE":"LARGE","INCLINATION":"53.0441","APOAPSIS":"352.306","PERIAPSIS":"346.990","CLASSIFICATION_TYPE":"U","TLE_LINE1":"1 48688U 21044BC  21271.00002315 -.00059222  00000-0 -41948-3 0  9990","OBJECT_TYPE":"PAYLOAD","RA_OF_ASC_NODE":"167.3605","SITE":"AFETR","GP_ID":"185669119"},{"CLASSIFICATION_TYPE":"U","PERIAPSIS":"361.160","APOAPSIS":"362.095","TLE_LINE1":"1 48689U 21044BD  21270.91668981  .01675012  00000-0  12531-1 0  9991","OBJECT_TYPE":"PAYLOAD","RA_OF_ASC_NODE":"167.8167","SITE":"AFETR","GP_ID":"185669227","MEAN_MOTION_DDOT":"0.0000000000000","MEAN_ANOMALY":"252.3618","REV_AT_EPOCH":"367","CENTER_NAME":"EARTH","FILE":"3131463","OBJECT_ID":"2021-044BD","ELEMENT_SET_NO":"999","COUNTRY_CODE":"US","PERIOD":"91.775","RCS_SIZE":"LARGE","INCLINATION":"53.0441","REF_FRAME":"TEME","NORAD_CAT_ID":"48689","MEAN_MOTION":"15.69046688","OBJECT_NAME":"STARLINK-2617","TIME_SYSTEM":"UTC","DECAY_DATE":null,"ECCENTRICITY":"0.00006930","EPHEMERIS_TYPE":"0","MEAN_MOTION_DOT":"0.01675012","TLE_LINE2":"2 48689  53.0441 167.8167 0000693 354.8797 252.3618 15.69046688  3677","MEAN_ELEMENT_THEORY":"SGP4","BSTAR":"0.01253100000000","SEMIMAJOR_AXIS":"6739.763","EPOCH":"2021-09-27T22:00:01.999584","ARG_OF_PERICENTER":"354.8797","LAUNCH_DATE":"2021-05-26"},{"SEMIMAJOR_AXIS":"6868.713","EPOCH":"2021-09-27T22:00:01.999584","BSTAR":"-0.03986900000000","TLE_LINE2":"2 48690  53.0439 171.7101 0001321  60.4259 303.2025 15.25069760  3654","MEAN_ELEMENT_THEORY":"SGP4","ARG_OF_PERICENTER":"60.4259","LAUNCH_DATE":"2021-05-26","REF_FRAME":"TEME","NORAD_CAT_ID":"48690","MEAN_MOTION":"15.25069760","MEAN_MOTION_DOT":"-0.00935501","OBJECT_NAME":"STARLINK-2740","TIME_SYSTEM":"UTC","DECAY_DATE":null,"ECCENTRICITY":"0.00013210","EPHEMERIS_TYPE":"0","CENTER_NAME":"EARTH","FILE":"3131463","MEAN_MOTION_DDOT":"0.0000000000000","MEAN_ANOMALY":"303.2025","REV_AT_EPOCH":"365","RCS_SIZE":"LARGE","INCLINATION":"53.0439","OBJECT_ID":"2021-044BE","ELEMENT_SET_NO":"999","COUNTRY_CODE":"US","PERIOD":"94.422","TLE_LINE1":"1 48690U 21044BE  21270.91668981 -.00935501  00000-0 -39869-1 0  9999","OBJECT_TYPE":"PAYLOAD","RA_OF_ASC_NODE":"171.7101","SITE":"AFETR","PERIAPSIS":"489.671","CLASSIFICATION_TYPE":"U","APOAPSIS":"491.485","GP_ID":"185669874"}];
